{"type": "FeatureCollection", "features": [{"type": "Feature", "properties": {"norad_id": 32275, "name": "COSMOS 2433 (720)", "group": "glo-ops", "lat": -45.402922845864104, "lon": 169.45012054208186, "alt_km": 19121.995773394723, "timestamp": "2025-12-13T20:38:51.265474+00:00", "meta": {"OBJECT_NAME": "COSMOS 2433 (720)", "OBJECT_ID": "2007-052A", "EPOCH": "2025-12-10T06:34:19.673184", "MEAN_MOTION": 2.13103813, "ECCENTRICITY": 0.00055546, "INCLINATION": 65.6847, "RA_OF_ASC_NODE": 322.2886, "ARG_OF_PERICENTER": 252.6006, "MEAN_ANOMALY": 107.3381, "EPHEMERIS_TYPE": 0, "CLASSIFICATION_TYPE": "U", "NORAD_CAT_ID": 32275, "ELEMENT_SET_NO": 999, "REV_AT_EPOCH": 14103, "BSTAR": 0, "MEAN_MOTION_DOT": -5e-07, "MEAN_MOTION_DDOT": 0}, "tle": {"line1": "1 32275U 07052A   25344.27383881 -.00000050  00000+0  00000+0 0  9995", "line2": "2 32275  65.6847 322.2886 0005554 252.6006 107.3381  2.13103813141032"}}, "geometry": {"type": "Point", "coordinates": [169.45012054208186, -45.402922845864104]}}, {"type": "Feature", "properties": {"norad_id": 32276, "name": "COSMOS 2432 (719)", "group": "glo-ops", "lat": 3.8264161678982456, "lon": 140.55118212408976, "alt_km": 19150.431694869458, "timestamp": "2025-12-13T20:38:51.265507+00:00", "meta": {"OBJECT_NAME": "COSMOS 2432 (719)", "OBJECT_ID": "2007-052B", "EPOCH": "2025-12-10T13:56:19.351392", "MEAN_MOTION": 2.13102999, "ECCENTRICITY": 0.0011254, "INCLINATION": 65.7001, "RA_OF_ASC_NODE": 322.4023, "ARG_OF_PERICENTER": 311.5771, "MEAN_ANOMALY": 228.309, "EPHEMERIS_TYPE": 0, "CLASSIFICATION_TYPE": "U", "NORAD_CAT_ID": 32276, "ELEMENT_SET_NO": 999, "REV_AT_EPOCH": 14106, "BSTAR": 0, "MEAN_MOTION_DOT": -5e-07, "MEAN_MOTION_DDOT": 0}, "tle": {"line1": "1 32276U 07052B   25344.58077953 -.00000050  00000+0  00000+0 0  9990", "line2": "2 32276  65.7001 322.4023 0011254 311.5771 228.3090  2.13102999141067"}}, "geometry": {"type": "Point", "coordinates": [140.55118212408976, 3.8264161678982456]}}, {"type": "Feature", "properties": {"norad_id": 32393, "name": "COSMOS 2434 (721)", "group": "glo-ops", "lat": 49.82768018232134, "lon": -16.583503811296616, "alt_km": 19117.35003177504, "timestamp": "2025-12-13T20:38:51.265523+00:00", "meta": {"OBJECT_NAME": "COSMOS 2434 (721)", "OBJECT_ID": "2007-065A", "EPOCH": "2025-12-10T15:35:17.035872", "MEAN_MOTION": 2.13101152, "ECCENTRICITY": 0.0004304, "INCLINATION": 64.3147, "RA_OF_ASC_NODE": 198.2738, "ARG_OF_PERICENTER": 71.148, "MEAN_ANOMALY": 107.63, "EPHEMERIS_TYPE": 0, "CLASSIFICATION_TYPE": "U", "NORAD_CAT_ID": 32393, "ELEMENT_SET_NO": 999, "REV_AT_EPOCH": 13975, "BSTAR": 0, "MEAN_MOTION_DOT": 4.8e-07, "MEAN_MOTION_DDOT": 0}, "tle": {"line1": "1 32393U 07065A   25344.64950273  .00000048  00000+0  00000+0 0  9992", "line2": "2 32393  64.3147 198.2738 0004304  71.1480 107.6300  2.13101152139755"}}, "geometry": {"type": "Point", "coordinates": [-16.583503811296616, 49.82768018232134]}}, {"type": "Feature", "properties": {"norad_id": 32395, "name": "COSMOS 2436 (723)", "group": "glo-ops", "lat": -60.43935348025814, "lon": 76.24844762718034, "alt_km": 19155.14900954606, "timestamp": "2025-12-13T20:38:51.265537+00:00", "meta": {"OBJECT_NAME": "COSMOS 2436 (723)", "OBJECT_ID": "2007-065C", "EPOCH": "2025-12-08T02:01:11.627904", "MEAN_MOTION": 2.13100022, "ECCENTRICITY": 0.00177472, "INCLINATION": 64.3236, "RA_OF_ASC_NODE": 198.4308, "ARG_OF_PERICENTER": 9.2257, "MEAN_ANOMALY": 134.6131, "EPHEMERIS_TYPE": 0, "CLASSIFICATION_TYPE": "U", "NORAD_CAT_ID": 32395, "ELEMENT_SET_NO": 999, "REV_AT_EPOCH": 13965, "BSTAR": 0, "MEAN_MOTION_DOT": 5.1e-07, "MEAN_MOTION_DDOT": 0}, "tle": {"line1": "1 32395U 07065C   25342.08416236  .00000051  00000+0  00000+0 0  9990", "line2": "2 32395  64.3236 198.4308 0017747   9.2257 134.6131  2.13100022139656"}}, "geometry": {"type": "Point", "coordinates": [76.24844762718034, -60.43935348025814]}}, {"type": "Feature", "properties": {"norad_id": 36111, "name": "COSMOS 2456 (730)", "group": "glo-ops", "lat": -63.427214530832195, "lon": 7.958466428192481, "alt_km": 19129.519187554204, "timestamp": "2025-12-13T20:38:51.265549+00:00", "meta": {"OBJECT_NAME": "COSMOS 2456 (730)", "OBJECT_ID": "2009-070A", "EPOCH": "2025-12-09T05:47:54.858624", "MEAN_MOTION": 2.13103359, "ECCENTRICITY": 0.00028383, "INCLINATION": 64.8981, "RA_OF_ASC_NODE": 77.4578, "ARG_OF_PERICENTER": 298.5783, "MEAN_ANOMALY": 37.1692, "EPHEMERIS_TYPE": 0, "CLASSIFICATION_TYPE": "U", "NORAD_CAT_ID": 36111, "ELEMENT_SET_NO": 999, "REV_AT_EPOCH": 12437, "BSTAR": 0, "MEAN_MOTION_DOT": -1.7e-07, "MEAN_MOTION_DDOT": 0}, "tle": {"line1": "1 36111U 09070A   25343.24160716 -.00000017  00000+0  00000+0 0  9999", "line2": "2 36111  64.8981  77.4578 0002838 298.5783  37.1692  2.13103359124373"}}, "geometry": {"type": "Point", "coordinates": [7.958466428192481, -63.427214530832195]}}, {"type": "Feature", "properties": {"norad_id": 36112, "name": "COSMOS 2457 (733)", "group": "glo-ops", "lat": 42.427894011189615, "lon": 102.49667554472583, "alt_km": 19129.115352065197, "timestamp": "2025-12-13T20:38:51.265561+00:00", "meta": {"OBJECT_NAME": "COSMOS 2457 (733)", "OBJECT_ID": "2009-070B", "EPOCH": "2025-12-13T01:04:44.050656", "MEAN_MOTION": 2.13100824, "ECCENTRICITY": 0.00047194, "INCLINATION": 64.8858, "RA_OF_ASC_NODE": 77.1749, "ARG_OF_PERICENTER": 157.6277, "MEAN_ANOMALY": 345.0739, "EPHEMERIS_TYPE": 0, "CLASSIFICATION_TYPE": "U", "NORAD_CAT_ID": 36112, "ELEMENT_SET_NO": 999, "REV_AT_EPOCH": 12446, "BSTAR": 0, "MEAN_MOTION_DOT": -4.9e-07, "MEAN_MOTION_DDOT": 0}, "tle": {"line1": "1 36112U 09070B   25347.04495429 -.00000049  00000+0  00000+0 0  9999", "line2": "2 36112  64.8858  77.1749 0004719 157.6277 345.0739  2.13100824124464"}}, "geometry": {"type": "Point", "coordinates": [102.49667554472583, 42.427894011189615]}}, {"type": "Feature", "properties": {"norad_id": 36402, "name": "COSMOS 2460 (732)", "group": "glo-ops", "lat": 42.34471527371263, "lon": -14.75724020190827, "alt_km": 19129.815046386037, "timestamp": "2025-12-13T20:38:51.265573+00:00", "meta": {"OBJECT_NAME": "COSMOS 2460 (732)", "OBJECT_ID": "2010-007C", "EPOCH": "2025-12-09T19:21:37.643616", "MEAN_MOTION": 2.13105924, "ECCENTRICITY": 0.00027883, "INCLINATION": 65.5316, "RA_OF_ASC_NODE": 320.8726, "ARG_OF_PERICENTER": 272.035, "MEAN_ANOMALY": 265.828, "EPHEMERIS_TYPE": 0, "CLASSIFICATION_TYPE": "U", "NORAD_CAT_ID": 36402, "ELEMENT_SET_NO": 999, "REV_AT_EPOCH": 12269, "BSTAR": 0, "MEAN_MOTION_DOT": -4.9e-07, "MEAN_MOTION_DDOT": 0}, "tle": {"line1": "1 36402U 10007C   25343.80668569 -.00000049  00000+0  00000+0 0  9990", "line2": "2 36402  65.5316 320.8726 0002788 272.0350 265.8280  2.13105924122693"}}, "geometry": {"type": "Point", "coordinates": [-14.75724020190827, 42.34471527371263]}}, {"type": "Feature", "properties": {"norad_id": 37867, "name": "COSMOS 2476 (744)", "group": "glo-ops", "lat": -6.586092726693318, "lon": -97.80170817188962, "alt_km": 19089.20692051286, "timestamp": "2025-12-13T20:38:51.265585+00:00", "meta": {"OBJECT_NAME": "COSMOS 2476 (744)", "OBJECT_ID": "2011-064A", "EPOCH": "2025-12-10T19:30:14.482368", "MEAN_MOTION": 2.13101258, "ECCENTRICITY": 0.00238922, "INCLINATION": 65.1614, "RA_OF_ASC_NODE": 79.2364, "ARG_OF_PERICENTER": 233.6597, "MEAN_ANOMALY": 135.7131, "EPHEMERIS_TYPE": 0, "CLASSIFICATION_TYPE": "U", "NORAD_CAT_ID": 37867, "ELEMENT_SET_NO": 999, "REV_AT_EPOCH": 10975, "BSTAR": 0, "MEAN_MOTION_DOT": -2.4e-07, "MEAN_MOTION_DDOT": 0}, "tle": {"line1": "1 37867U 11064A   25344.81266762 -.00000024  00000+0  00000+0 0  9994", "line2": "2 37867  65.1614  79.2364 0023892 233.6597 135.7131  2.13101258109752"}}, "geometry": {"type": "Point", "coordinates": [-97.80170817188962, -6.586092726693318]}}, {"type": "Feature", "properties": {"norad_id": 37868, "name": "COSMOS 2477 (745)", "group": "glo-ops", "lat": 7.719632361413302, "lon": 82.80821909321995, "alt_km": 19166.750949104648, "timestamp": "2025-12-13T20:38:51.265612+00:00", "meta": {"OBJECT_NAME": "COSMOS 2477 (745)", "OBJECT_ID": "2011-064B", "EPOCH": "2025-12-12T21:57:38.702592", "MEAN_MOTION": 2.13102761, "ECCENTRICITY": 0.00211332, "INCLINATION": 65.1692, "RA_OF_ASC_NODE": 79.2429, "ARG_OF_PERICENTER": 234.633, "MEAN_ANOMALY": 128.5252, "EPHEMERIS_TYPE": 0, "CLASSIFICATION_TYPE": "U", "NORAD_CAT_ID": 37868, "ELEMENT_SET_NO": 999, "REV_AT_EPOCH": 10979, "BSTAR": 0, "MEAN_MOTION_DOT": -4.4e-07, "MEAN_MOTION_DDOT": 0}, "tle": {"line1": "1 37868U 11064B   25346.91503128 -.00000044  00000+0  00000+0 0  9990", "line2": "2 37868  65.1692  79.2429 0021133 234.6330 128.5252  2.13102761109791"}}, "geometry": {"type": "Point", "coordinates": [82.80821909321995, 7.719632361413302]}}, {"type": "Feature", "properties": {"norad_id": 37869, "name": "COSMOS 2475 (743)", "group": "glo-ops", "lat": -31.750770011758576, "lon": 62.616491591967446, "alt_km": 19118.41227993644, "timestamp": "2025-12-13T20:38:51.265626+00:00", "meta": {"OBJECT_NAME": "COSMOS 2475 (743)", "OBJECT_ID": "2011-064C", "EPOCH": "2025-12-09T06:02:05.700768", "MEAN_MOTION": 2.13101306, "ECCENTRICITY": 0.0026081, "INCLINATION": 65.1742, "RA_OF_ASC_NODE": 79.3871, "ARG_OF_PERICENTER": 248.2695, "MEAN_ANOMALY": 140.2782, "EPHEMERIS_TYPE": 0, "CLASSIFICATION_TYPE": "U", "NORAD_CAT_ID": 37869, "ELEMENT_SET_NO": 999, "REV_AT_EPOCH": 10972, "BSTAR": 0, "MEAN_MOTION_DOT": -1.3e-07, "MEAN_MOTION_DDOT": 0}, "tle": {"line1": "1 37869U 11064C   25343.25145487 -.00000013  00000+0  00000+0 0  9991", "line2": "2 37869  65.1742  79.3871 0026081 248.2695 140.2782  2.13101306109728"}}, "geometry": {"type": "Point", "coordinates": [62.616491591967446, -31.750770011758576]}}]}